SL-3 R/B                
1 19046U 88032B   23025.44998976  .00004271  00000+0  30295-3 0  9994
2 19046  97.4070  19.8705 0035215 198.7561 161.2370 15.04768659880278
SL-16 R/B               
1 19120U 88039B   23025.11288307  .00000169  00000+0  10319-3 0  9995
2 19120  71.0163 317.5336 0024263 286.1021  73.7432 14.19284570796940
COSMOS 1953             
1 19210U 88050A   23025.58371660  .00004793  00000+0  30338-3 0  9994
2 19210  82.5201 204.5247 0018914 117.1541 243.1619 15.08619741886167
SL-8 R/B                
1 19257U 88053B   23025.16262271  .00000447  00000+0  15693-3 0  9998
2 19257  74.0476  50.7952 0019783 157.8144 266.3557 14.37714297813045
COSMOS 1975             
1 19573U 88093A   23024.45873974  .00008510  00000+0  55619-3 0  9993
2 19573  82.5217 161.9295 0012583 158.0816 202.0953 15.07617854867740
SL-14 R/B               
1 19574U 88093B   23025.12280115  .00000811  00000+0  95023-4 0  9998
2 19574  82.5308  30.0020 0020863 199.4441 229.6931 14.83671980853049
SL-16 R/B               
1 19650U 88102B   23025.09348605  .00000067  00000+0  58082-4 0  9996
2 19650  71.0003  28.7329 0016429 300.8800  59.0706 14.15863219765854
INTERCOSMOS 24          
1 20261U 89080A   23025.60174389  .00000689  00000+0  19751-3 0  9994
2 20261  82.6044 123.8925 1201039  50.2615 319.8247 12.56703202523149
SL-14 R/B               
1 20262U 89080C   23024.48895299  .00000563  00000+0  17223-3 0  9993
2 20262  82.5947 184.6763 1235153 268.4466  77.5151 12.49171355517287
DELTA 2 R/B(1)          
1 20303U 89085B   23025.29089234  .00032972  00000+0  63406-3 0  9991
2 20303  35.6356 109.4582 0064346  60.8794 299.8362 15.44644770814110
DELTA 1 R/B             
1 20323U 89089B   23025.01744914  .00000604  00000+0  16393-3 0  9990
2 20323  97.0641  35.8744 0072784 116.0779 244.7933 14.48666378751142
ARIANE 40 R/B           
1 20443U 90005H   23024.78171189  .00000570  00000+0  20138-3 0  9998
2 20443  98.4582  94.5918 0010764  29.8455 330.3345 14.38361278729112
DELTA 2 R/B(1)          
1 20453U 90008B   23024.73261579  .00018425  00000+0  90663-3 0  9998
2 20453  35.6242  27.2965 0252795 353.5325   6.2159 14.93437414752956
COSMOS 2058             
1 20465U 90010A   23025.13431307  .00003173  00000+0  25515-3 0  9995
2 20465  82.4864  76.8813 0013810 225.9851 134.0235 14.99628196791953
SL-14 R/B               
1 20466U 90010B   23025.14102356  .00000670  00000+0  81701-4 0  9995
2 20466  82.5015 256.0009 0021929  90.5192 269.8535 14.81705503780694
SL-14 R/B               
1 20511U 90018B   23025.51654647  .00000747  00000+0  94856-4 0  9990
2 20511  82.5218 206.2913 0016156 232.4416 181.0364 14.80348459775043
HST                     
1 20580U 90037B   23024.68083747  .00005753  00000+0  31829-3 0  9993
2 20580  28.4698 141.8433 0001983 267.7655 129.0708 15.11743002599977
SL-16 R/B               
1 20625U 90046B   23025.59533508 -.00000054  00000+0 -33897-5 0  9999
2 20625  70.9981 169.6248 0016349 239.9501 120.0000 14.14719627687522
COSMOS 2084             
1 20663U 90055A   23024.82850472  .00004548  00000+0  37553-3 0  9999
2 20663  62.7912 228.9439 0131754  72.1465 289.3949 14.93881475765360
SL-6 R/B(2)             
1 20666U 90055D   23025.51068521  .00003541  00000+0  29456-3 0  9990
2 20666  62.7846 140.5757 0131572  93.8018 267.8132 14.94120720766897
SL-8 R/B                
1 20775U 90078B   23024.86974036  .00016594  00000+0  74656-3 0  9994
2 20775  82.9245 158.2067 0533383 113.3206 252.5036 14.44604711642415
SL-8 R/B                
1 21088U 91006B   23024.85184247  .00000133  00000+0  11842-3 0  9990
2 21088  82.9436 297.8247 0022506 350.8354  73.1051 13.77238548607430
OKEAN-3                 
1 21397U 91039A   23024.85212870  .00004396  00000+0  40434-3 0  9997
2 21397  82.5234 351.7312 0015957 218.7323 141.2756 14.94476814715314
COSMOS 2151             
1 21422U 91042A   23025.18035429  .00002438  00000+0  23065-3 0  9996
2 21422  82.4995  96.4183 0012485 293.9319  66.0593 14.93223100713912
SL-14 R/B               
1 21423U 91042B   23025.00474843  .00000701  00000+0  89263-4 0  9999
2 21423  82.4929 207.4342 0018176  25.7569 334.4545 14.80090129705438
ERS-1                   
1 21574U 91050A   23024.83321999  .00000542  00000+0  19316-3 0  9992
2 21574  98.7266   1.6984 0032594 343.4551  16.5569 14.38011030651819
ARIANE 40 R/B           
1 21610U 91050F   23025.44026515  .00000595  00000+0  19762-3 0  9990
2 21610  98.3563  95.3521 0002151 279.8477  80.2469 14.41210073655079
INTERCOSMOS 25          
1 21819U 91086A   23025.45106160  .00002651  00000+0  52684-3 0  9991
2 21819  82.6080 275.6719 1511880  41.9798 328.7700 12.06375915359010
SL-8 R/B                
1 21876U 92008B   23023.78807032  .00000170  00000+0  15871-3 0  9990
2 21876  82.9256  36.0423 0036229  81.1459  91.2233 13.75728439552760
SL-8 R/B                
1 21938U 92020B   23024.85089428  .00000144  00000+0  13454-3 0  9999
2 21938  82.9302 280.2048 0028018 238.0401 193.4690 13.75320678544748
COSMOS 2219             
1 22219U 92076A   23024.78289780  .00000226  00000+0  14401-3 0  9992
2 22219  71.0579 240.3049 0017404 147.6036 212.6159 14.13719242557582
SL-16 R/B               
1 22220U 92076B   23025.15631382  .00000307  00000+0  17806-3 0  9997
2 22220  71.0001  68.1267 0011804  22.3619  37.2807 14.16530021560771
COSMOS 2221             
1 22236U 92080A   23024.80158198  .00002911  00000+0  30572-3 0  9997
2 22236  82.5074 284.2756 0017662  46.1339 314.1335 14.89054788631818
SL-16 R/B               
1 22285U 92093B   23024.84489241  .00000179  00000+0  11681-3 0  9999
2 22285  71.0200 236.4978 0006473 253.2496 106.7917 14.15116888552209
COSMOS 2228             
1 22286U 92094A   23025.07400999  .00002581  00000+0  26861-3 0  9995
2 22286  82.5174 241.3702 0021018 154.5930 205.6326 14.89331392627076
SL-16 R/B               
1 22566U 93016B   23025.49366734  .00000331  00000+0  19543-3 0  9995
2 22566  71.0074  87.2719 0012546 259.0341 100.9370 14.15029744541016
COSMOS 2242             
1 22626U 93024A   23024.74971254  .00002751  00000+0  28803-3 0  9994
2 22626  82.5201 270.2240 0018905 155.4184 204.7939 14.89147038610653
SL-16 R/B               
1 22803U 93059B   23024.81131488  .00000317  00000+0  18145-3 0  9998
2 22803  70.9896 254.2720 0016183 154.0640 206.1298 14.16898574518316
ARIANE 40 R/B           
1 22830U 93061H   23025.42641338  .00000381  00000+0  15937-3 0  9996
2 22830  98.6364  92.4416 0011597  51.0607 309.1608 14.31658863531271
COSMOS 2278             
1 23087U 94023A   23025.12378231  .00000179  00000+0  11931-3 0  9991
2 23087  71.0548  38.3764 0010570 317.6411  42.3894 14.13917882483957
SL-16 R/B               
1 23088U 94023B   23025.19504447 -.00000194  00000+0 -75722-4 0  9997
2 23088  71.0010 303.4111 0005594 246.8684 113.1849 14.14736646485181
SL-16 R/B               
1 23343U 94074B   23025.17351102  .00000789  00000+0  11849-3 0  9990
2 23343  97.8630  77.9564 0006051 330.1906  97.1371 14.77225677519104
SL-16 R/B               
1 23405U 94077B   23025.26459522 -.00000124  00000+0 -38966-4 0  9992
2 23405  70.9810 229.0726 0000349 152.9338 207.1802 14.15282417455274
ERS-2                   
1 23560U 95021A   23025.38692048  .00027386  00000+0  90677-3 0  9992
2 23560  98.5097 326.9758 0004910 130.1633 230.0035 15.31283123487244
ARIANE 40+ R/B          
1 23561U 95021B   23025.39949262  .00000509  00000+0  18215-3 0  9993
2 23561  98.5949  88.2569 0006063 311.0364  59.7706 14.38284355455612
SL-16 R/B               
1 23705U 95058B   23025.49643637 -.00000205  00000+0 -80781-4 0  9994
2 23705  71.0221  51.3753 0010543  47.5482 312.6531 14.15203049406964
SL-16 R/B               
1 24298U 96051B   23024.48508233  .00000141  00000+0  10266-3 0  9993
2 24298  70.8265  64.4286 0013700  10.8206 349.3206 14.12477153360903
ORBVIEW 2 (SEASTAR)     
1 24883U 97037A   23024.93323184  .00000645  00000+0  24793-3 0  9997
2 24883  98.7035 154.3719 0002603 157.9037 202.2260 14.33886246345306
SL-16 R/B               
1 25400U 98043G   23025.43426651  .00000157  00000+0  84971-4 0  9993
2 25400  98.6948 324.3379 0010964  83.8967 276.3462 14.25559546276875
SL-16 R/B               
1 25407U 98045B   23025.49288757 -.00000004  00000+0  22278-4 0  9995
2 25407  71.0106  56.6704 0009137 310.2376  49.7948 14.15885348266108
ISS (ZARYA)             
1 25544U 98067A   23025.69933734  .00024770  00000+0  43837-3 0  9993
2 25544  51.6454 314.3099 0004769 277.6272 159.1176 15.50138530379690
CZ-4B R/B               
1 25732U 99025C   23024.77384321  .00000136  00000+0  87653-4 0  9992
2 25732  98.8261  70.1125 0037561  16.3153  95.1412 14.17774664226753
OKEAN-O                 
1 25860U 99039A   23025.11208529  .00001051  00000+0  15591-3 0  9991
2 25860  98.1112  71.5555 0001772  81.5718 278.5693 14.77187352266065
SL-16 R/B               
1 25861U 99039B   23025.32616191  .00000938  00000+0  13394-3 0  9995
2 25861  98.1574  60.7551 0015093 344.1145  15.9590 14.79055720268423
DELTA 2 R/B             
1 25876U 99041E   23025.49415042  .00003505  00000+0  62826-3 0  9991
2 25876  51.7658 149.8873 0527171 242.2388 112.4144 14.05594040202467
HELIOS 1B               
1 25977U 99064A   23025.13077454  .00001215  00000+0  15636-3 0  9993
2 25977  98.3063 233.1777 0001981 119.8181 240.3229 14.83066653247433
TERRA                   
1 25994U 99068A   23025.49039564  .00000818  00000+0  18381-3 0  9993
2 25994  98.1130  97.3105 0002416 129.4195 287.8071 14.58999515228979
SL-16 R/B               
1 26070U 00006B   23023.30560902 -.00000035  00000+0  63128-5 0  9999
2 26070  71.0041 337.1854 0014422 123.9428 236.3068 14.15520013187009
TITAN 4B R/B            
1 26474U 00047B   23025.09900853  .00003987  00000+0  33786-3 0  9996
2 26474  67.9960 334.1837 0058033 233.9022 125.6741 14.97752399221705
